[{"OBJECT_NAME":"RASSVET-3 11","OBJECT_ID":"2026-061L","EPOCH":"2026-04-11T05:36:33.261984","MEAN_MOTION":15.90157664,"ECCENTRICITY":0.00235401,"INCLINATION":82.2973,"RA_OF_ASC_NODE":87.7314,"ARG_OF_PERICENTER":5.4495,"MEAN_ANOMALY":354.7028,"EPHEMERIS_TYPE":0,"CLASSIFICATION_TYPE":"U","NORAD_CAT_ID":68370,"ELEMENT_SET_NO":999,"REV_AT_EPOCH":294,"BSTAR":0.00025502278,"MEAN_MOTION_DOT":0.00078674,"MEAN_MOTION_DDOT":1.038911e-6},{"OBJECT_NAME":"RASSVET-3 12","OBJECT_ID":"2026-061M","EPOCH":"2026-04-11T05:35:23.544960","MEAN_MOTION":15.90459848,"ECCENTRICITY":0.00231536,"INCLINATION":82.2971,"RA_OF_ASC_NODE":87.7304,"ARG_OF_PERICENTER":5.3396,"MEAN_ANOMALY":354.8118,"EPHEMERIS_TYPE":0,"CLASSIFICATION_TYPE":"U","NORAD_CAT_ID":68371,"ELEMENT_SET_NO":999,"REV_AT_EPOCH":294,"BSTAR":0.00032628153,"MEAN_MOTION_DOT":0.00102033,"MEAN_MOTION_DDOT":2.533848e-6},{"OBJECT_NAME":"RASSVET-3 13","OBJECT_ID":"2026-061N","EPOCH":"2026-04-11T05:34:52.936032","MEAN_MOTION":15.9056045,"ECCENTRICITY":0.00227703,"INCLINATION":82.2968,"RA_OF_ASC_NODE":87.7295,"ARG_OF_PERICENTER":5.3808,"MEAN_ANOMALY":354.7704,"EPHEMERIS_TYPE":0,"CLASSIFICATION_TYPE":"U","NORAD_CAT_ID":68372,"ELEMENT_SET_NO":999,"REV_AT_EPOCH":294,"BSTAR":0.00032797144,"MEAN_MOTION_DOT":0.00103005,"MEAN_MOTION_DDOT":2.608514e-6},{"OBJECT_NAME":"RASSVET-3 14","OBJECT_ID":"2026-061P","EPOCH":"2026-04-11T05:33:41.098752","MEAN_MOTION":15.90645127,"ECCENTRICITY":0.00226977,"INCLINATION":82.2969,"RA_OF_ASC_NODE":87.7284,"ARG_OF_PERICENTER":5.2237,"MEAN_ANOMALY":354.9267,"EPHEMERIS_TYPE":0,"CLASSIFICATION_TYPE":"U","NORAD_CAT_ID":68373,"ELEMENT_SET_NO":999,"REV_AT_EPOCH":294,"BSTAR":0.00032047423,"MEAN_MOTION_DOT":0.0010108,"MEAN_MOTION_DDOT":2.472677e-6},{"OBJECT_NAME":"RASSVET-3 15","OBJECT_ID":"2026-061Q","EPOCH":"2026-04-11T05:32:45.604032","MEAN_MOTION":15.90832179,"ECCENTRICITY":0.00222848,"INCLINATION":82.2964,"RA_OF_ASC_NODE":87.7277,"ARG_OF_PERICENTER":5.2809,"MEAN_ANOMALY":354.8693,"EPHEMERIS_TYPE":0,"CLASSIFICATION_TYPE":"U","NORAD_CAT_ID":68374,"ELEMENT_SET_NO":999,"REV_AT_EPOCH":294,"BSTAR":0.00031264876,"MEAN_MOTION_DOT":0.00099483,"MEAN_MOTION_DDOT":2.366403e-6},{"OBJECT_NAME":"RASSVET-3 16","OBJECT_ID":"2026-061R","EPOCH":"2026-04-11T05:46:06.658176","MEAN_MOTION":15.83629346,"ECCENTRICITY":0.00215178,"INCLINATION":82.2949,"RA_OF_ASC_NODE":87.7386,"ARG_OF_PERICENTER":13.4175,"MEAN_ANOMALY":346.7661,"EPHEMERIS_TYPE":0,"CLASSIFICATION_TYPE":"U","NORAD_CAT_ID":68375,"ELEMENT_SET_NO":999,"REV_AT_EPOCH":294,"BSTAR":0.00028888989,"MEAN_MOTION_DOT":0.00064652,"MEAN_MOTION_DDOT":0},{"OBJECT_NAME":"SUPERVIEW NEO-2 OBJECT A","OBJECT_ID":"2026-062A","EPOCH":"2026-04-11T06:05:01.496256","MEAN_MOTION":15.19745996,"ECCENTRICITY":0.00041586,"INCLINATION":97.438,"RA_OF_ASC_NODE":109.5144,"ARG_OF_PERICENTER":188.1246,"MEAN_ANOMALY":171.9922,"EPHEMERIS_TYPE":0,"CLASSIFICATION_TYPE":"U","NORAD_CAT_ID":68377,"ELEMENT_SET_NO":999,"REV_AT_EPOCH":248,"BSTAR":0.0001090338,"MEAN_MOTION_DOT":2.263e-5,"MEAN_MOTION_DDOT":0},{"OBJECT_NAME":"SUPERVIEW NEO-2 OBJECT B","OBJECT_ID":"2026-062B","EPOCH":"2026-04-11T07:39:24.732864","MEAN_MOTION":15.1974311,"ECCENTRICITY":0.00065145,"INCLINATION":97.4356,"RA_OF_ASC_NODE":109.5758,"ARG_OF_PERICENTER":200.9682,"MEAN_ANOMALY":159.1287,"EPHEMERIS_TYPE":0,"CLASSIFICATION_TYPE":"U","NORAD_CAT_ID":68378,"ELEMENT_SET_NO":999,"REV_AT_EPOCH":249,"BSTAR":0.00011034642,"MEAN_MOTION_DOT":2.291e-5,"MEAN_MOTION_DDOT":0},{"OBJECT_NAME":"STARLINK-36296","OBJECT_ID":"2026-063A","EPOCH":"2026-04-10T17:44:59.686944","MEAN_MOTION":15.9435452,"ECCENTRICITY":0.00182103,"INCLINATION":97.2786,"RA_OF_ASC_NODE":242.183,"ARG_OF_PERICENTER":282.8135,"MEAN_ANOMALY":77.1104,"EPHEMERIS_TYPE":0,"CLASSIFICATION_TYPE":"U","NORAD_CAT_ID":68380,"ELEMENT_SET_NO":999,"REV_AT_EPOCH":269,"BSTAR":-0.0080360899,"MEAN_MOTION_DOT":-0.02849802,"MEAN_MOTION_DDOT":0},{"OBJECT_NAME":"STARLINK-37111","OBJECT_ID":"2026-063B","EPOCH":"2026-04-11T04:22:10.281216","MEAN_MOTION":15.80897101,"ECCENTRICITY":0.00014842,"INCLINATION":97.2832,"RA_OF_ASC_NODE":242.5222,"ARG_OF_PERICENTER":110.1184,"MEAN_ANOMALY":250.0244,"EPHEMERIS_TYPE":0,"CLASSIFICATION_TYPE":"U","NORAD_CAT_ID":68381,"ELEMENT_SET_NO":999,"REV_AT_EPOCH":275,"BSTAR":0.0012625039,"MEAN_MOTION_DOT":0.00249659,"MEAN_MOTION_DDOT":0},{"OBJECT_NAME":"STARLINK-36946","OBJECT_ID":"2026-063C","EPOCH":"2026-04-11T05:52:14.480256","MEAN_MOTION":15.80873887,"ECCENTRICITY":0.00012076,"INCLINATION":97.2835,"RA_OF_ASC_NODE":242.5892,"ARG_OF_PERICENTER":92.5763,"MEAN_ANOMALY":267.5644,"EPHEMERIS_TYPE":0,"CLASSIFICATION_TYPE":"U","NORAD_CAT_ID":68382,"ELEMENT_SET_NO":999,"REV_AT_EPOCH":276,"BSTAR":0.00078588706,"MEAN_MOTION_DOT":0.00153473,"MEAN_MOTION_DDOT":0},{"OBJECT_NAME":"STARLINK-37121","OBJECT_ID":"2026-063D","EPOCH":"2026-04-11T05:50:04.697952","MEAN_MOTION":15.80871114,"ECCENTRICITY":0.00013278,"INCLINATION":97.2832,"RA_OF_ASC_NODE":242.5922,"ARG_OF_PERICENTER":86.3806,"MEAN_ANOMALY":273.7614,"EPHEMERIS_TYPE":0,"CLASSIFICATION_TYPE":"U","NORAD_CAT_ID":68383,"ELEMENT_SET_NO":999,"REV_AT_EPOCH":276,"BSTAR":0.00082257032,"MEAN_MOTION_DOT":0.00160759,"MEAN_MOTION_DDOT":0},{"OBJECT_NAME":"STARLINK-37137","OBJECT_ID":"2026-063E","EPOCH":"2026-04-11T06:00:02.000160","MEAN_MOTION":15.75178442,"ECCENTRICITY":0.00014328,"INCLINATION":97.2845,"RA_OF_ASC_NODE":242.5762,"ARG_OF_PERICENTER":93.7914,"MEAN_ANOMALY":249.0768,"EPHEMERIS_TYPE":0,"CLASSIFICATION_TYPE":"U","NORAD_CAT_ID":68384,"ELEMENT_SET_NO":999,"REV_AT_EPOCH":369,"BSTAR":-5.4547423e-5,"MEAN_MOTION_DOT":-8.254e-5,"MEAN_MOTION_DDOT":0},{"OBJECT_NAME":"STARLINK-37128","OBJECT_ID":"2026-063F","EPOCH":"2026-04-11T07:20:08.826144","MEAN_MOTION":15.8092027,"ECCENTRICITY":0.00012983,"INCLINATION":97.283,"RA_OF_ASC_NODE":242.6602,"ARG_OF_PERICENTER":59.7546,"MEAN_ANOMALY":300.385,"EPHEMERIS_TYPE":0,"CLASSIFICATION_TYPE":"U","NORAD_CAT_ID":68385,"ELEMENT_SET_NO":999,"REV_AT_EPOCH":277,"BSTAR":0.0012959232,"MEAN_MOTION_DOT":0.00256753,"MEAN_MOTION_DDOT":0},{"OBJECT_NAME":"STARLINK-37198","OBJECT_ID":"2026-063G","EPOCH":"2026-04-11T07:19:03.789408","MEAN_MOTION":15.80893076,"ECCENTRICITY":0.0001379,"INCLINATION":97.2833,"RA_OF_ASC_NODE":242.6605,"ARG_OF_PERICENTER":77.977,"MEAN_ANOMALY":282.1653,"EPHEMERIS_TYPE":0,"CLASSIFICATION_TYPE":"U","NORAD_CAT_ID":68386,"ELEMENT_SET_NO":999,"REV_AT_EPOCH":277,"BSTAR":0.00085451254,"MEAN_MOTION_DOT":0.00167302,"MEAN_MOTION_DDOT":0}]
