RASSVET-3 11            
1 68370U 26061L   26101.23371831  .00078674  10389-5  25502-3 0  9992
2 68370  82.2973  87.7314 0023540   5.4495 354.7028 15.90157664  2946
RASSVET-3 12            
1 68371U 26061M   26101.23291140  .00102033  25338-5  32628-3 0  9991
2 68371  82.2971  87.7304 0023153   5.3396 354.8118 15.90459848  2943
RASSVET-3 13            
1 68372U 26061N   26101.23255713  .00103005  26085-5  32797-3 0  9995
2 68372  82.2968  87.7295 0022770   5.3808 354.7704 15.90560450  2943
RASSVET-3 14            
1 68373U 26061P   26101.23172568  .00101080  24727-5  32047-3 0  9992
2 68373  82.2969  87.7284 0022697   5.2237 354.9267 15.90645127  2947
RASSVET-3 15            
1 68374U 26061Q   26101.23108338  .00099483  23664-5  31265-3 0  9990
2 68374  82.2964  87.7277 0022284   5.2809 354.8693 15.90832179  2949
RASSVET-3 16            
1 68375U 26061R   26101.24035484  .00064652  00000+0  28889-3 0  9994
2 68375  82.2949  87.7386 0021517  13.4175 346.7661 15.83629346  2946
SUPERVIEW NEO-2 OBJECT A
1 68377U 26062A   26101.25348954  .00002263  00000+0  10903-3 0  9995
2 68377  97.4380 109.5144 0004158 188.1246 171.9922 15.19745996  2487
SUPERVIEW NEO-2 OBJECT B
1 68378U 26062B   26101.31903626  .00002291  00000+0  11035-3 0  9994
2 68378  97.4356 109.5758 0006514 200.9682 159.1287 15.19743110  2496
STARLINK-36296          
1 68380U 26063A   26100.73957971 -.02849802  00000+0 -80361-2 0  9993
2 68380  97.2786 242.1830 0018210 282.8135  77.1104 15.94354520  2692
STARLINK-37111          
1 68381U 26063B   26101.18206344  .00249659  00000+0  12625-2 0  9993
2 68381  97.2832 242.5222 0001484 110.1184 250.0244 15.80897101  2752
STARLINK-36946          
1 68382U 26063C   26101.24461204  .00153473  00000+0  78589-3 0  9999
2 68382  97.2835 242.5892 0001207  92.5763 267.5644 15.80873887  2761
STARLINK-37121          
1 68383U 26063D   26101.24310993  .00160759  00000+0  82257-3 0  9990
2 68383  97.2832 242.5922 0001327  86.3806 273.7614 15.80871114  2762
STARLINK-37137          
1 68384U 26063E   26101.25002315 -.00008254  00000+0 -54547-4 0  9993
2 68384  97.2845 242.5762 0001432  93.7914 249.0768 15.75178442  3695
STARLINK-37128          
1 68385U 26063F   26101.30565771  .00256753  00000+0  12959-2 0  9996
2 68385  97.2830 242.6602 0001298  59.7546 300.3850 15.80920270  2778
STARLINK-37198          
1 68386U 26063G   26101.30490497  .00167302  00000+0  85451-3 0  9998
2 68386  97.2833 242.6605 0001379  77.9770 282.1653 15.80893076  2777
